CORVUS BC2              
1 42846U 17042X   26068.92684092  .00004947  00000+0  34626-3 0  9997
2 42846  97.3955 234.2405 0014586  92.3850 267.9047 15.05610206472122
STARLINK-3308           
1 50846U 22001AV  26068.53989321 -.00000013  00000+0  17280-4 0  9996
2 50846  53.2172 179.9090 0001378  92.9223 267.1927 15.08840261230246
